[{"OBJECT_NAME":"STARLINK-35910","OBJECT_ID":"2025-303X","EPOCH":"2026-03-09T01:27:09.464544","MEAN_MOTION":15.27604781,"ECCENTRICITY":1.845e-5,"INCLINATION":42.9961,"RA_OF_ASC_NODE":313.8596,"ARG_OF_PERICENTER":24.3355,"MEAN_ANOMALY":335.7505,"EPHEMERIS_TYPE":0,"CLASSIFICATION_TYPE":"U","NORAD_CAT_ID":67184,"ELEMENT_SET_NO":999,"REV_AT_EPOCH":1264,"BSTAR":0.0014300603,"MEAN_MOTION_DOT":0.0003933,"MEAN_MOTION_DDOT":0},{"OBJECT_NAME":"DMSP 5D-2 F13 DEB","OBJECT_ID":"1995-015HL","EPOCH":"2026-02-09T02:06:19.247328","MEAN_MOTION":15.12822218,"ECCENTRICITY":0.00117732,"INCLINATION":98.8603,"RA_OF_ASC_NODE":96.8879,"ARG_OF_PERICENTER":223.037,"MEAN_ANOMALY":136.9936,"EPHEMERIS_TYPE":0,"CLASSIFICATION_TYPE":"U","NORAD_CAT_ID":42294,"ELEMENT_SET_NO":999,"REV_AT_EPOCH":55633,"BSTAR":0.010466292,"MEAN_MOTION_DOT":0.00188804,"MEAN_MOTION_DDOT":0}]
